{"type": "FeatureCollection", "features": [ {"type": "Feature", "properties": {"norad_id": 34375, "name": "IRIDIUM 33 DEB", "group": "iridium-33-debris", "lat": -52.71305237335406, "lon": 179.2208404902495, "alt_km": 912.6187954412535, "timestamp": "2025-12-09T16:56:36.959231+00:00", "meta": {"OBJECT_NAME": "IRIDIUM 33 DEB", "OBJECT_ID": "1997-051FT", "EPOCH": "2025-12-09T12:12:31.902048", "MEAN_MOTION": 14.17984003, "ECCENTRICITY": 0.0103069, "INCLINATION": 86.4325, "RA_OF_ASC_NODE": 183.9999, "ARG_OF_PERICENTER": 136.8871, "MEAN_ANOMALY": 243.7031, "EPHEMERIS_TYPE": 0, "CLASSIFICATION_TYPE": "U", "NORAD_CAT_ID": 34375, "ELEMENT_SET_NO": 999, "REV_AT_EPOCH": 86666, "BSTAR": 0.00067003, "MEAN_MOTION_DOT": 1.464e-05, "MEAN_MOTION_DDOT": 0}, "tle": {"line1": "1 34375U 97051FT  25343.50870257  .00001464  00000+0  67003-3 0  9998", "line2": "2 34375  86.4325 183.9999 0103069 136.8871 243.7031 14.17984003866662"}}, "geometry": {"type": "Point", "coordinates": [179.2208404902495, -52.71305237335406]}}, {"type": "Feature", "properties": {"norad_id": 34376, "name": "IRIDIUM 33 DEB", "group": "iridium-33-debris", "lat": -13.759598932178191, "lon": -171.18828914858972, "alt_km": 671.735869558067, "timestamp": "2025-12-09T16:56:36.959242+00:00", "meta": {"OBJECT_NAME": "IRIDIUM 33 DEB", "OBJECT_ID": "1997-051FU", "EPOCH": "2025-12-09T01:16:56.150688", "MEAN_MOTION": 14.62483707, "ECCENTRICITY": 0.00267298, "INCLINATION": 86.2984, "RA_OF_ASC_NODE": 8.1966, "ARG_OF_PERICENTER": 179.1594, "MEAN_ANOMALY": 180.9667, "EPHEMERIS_TYPE": 0, "CLASSIFICATION_TYPE": "U", "NORAD_CAT_ID": 34376, "ELEMENT_SET_NO": 999, "REV_AT_EPOCH": 87953, "BSTAR": 0.0016761111, "MEAN_MOTION_DOT": 8.56e-05, "MEAN_MOTION_DDOT": 0}, "tle": {"line1": "1 34376U 97051FU  25343.05342767  .00008560  00000+0  16761-2 0  9997", "line2": "2 34376  86.2984   8.1966 0026729 179.1594 180.9667 14.62483707879535"}}, "geometry": {"type": "Point", "coordinates": [-171.18828914858972, -13.759598932178191]}}, {"type": "Feature", "properties": {"norad_id": 34486, "name": "IRIDIUM 33 DEB", "group": "iridium-33-debris", "lat": 48.24882701546943, "lon": 17.476525737110627, "alt_km": 573.7620817671159, "timestamp": "2025-12-09T16:56:36.959253+00:00", "meta": {"OBJECT_NAME": "IRIDIUM 33 DEB", "OBJECT_ID": "1997-051GB", "EPOCH": "2025-12-09T02:32:24.432576", "MEAN_MOTION": 14.95535062, "ECCENTRICITY": 0.00133768, "INCLINATION": 86.394, "RA_OF_ASC_NODE": 13.7018, "ARG_OF_PERICENTER": 124.1656, "MEAN_ANOMALY": 295.4203, "EPHEMERIS_TYPE": 0, "CLASSIFICATION_TYPE": "U", "NORAD_CAT_ID": 34486, "ELEMENT_SET_NO": 999, "REV_AT_EPOCH": 88932, "BSTAR": 0.0024815535, "MEAN_MOTION_DOT": 0.00027645, "MEAN_MOTION_DDOT": 0}, "tle": {"line1": "1 34486U 97051GB  25343.10583834  .00027645  00000+0  24816-2 0  9992", "line2": "2 34486  86.3940  13.7018 0013376 124.1656 295.4203 14.95535062889327"}}, "geometry": {"type": "Point", "coordinates": [17.476525737110627, 48.24882701546943]}}, {"type": "Feature", "properties": {"norad_id": 34487, "name": "IRIDIUM 33 DEB", "group": "iridium-33-debris", "lat": -82.5848006880914, "lon": -15.743355663227105, "alt_km": 772.7196329043463, "timestamp": "2025-12-09T16:56:36.959263+00:00", "meta": {"OBJECT_NAME": "IRIDIUM 33 DEB", "OBJECT_ID": "1997-051GC", "EPOCH": "2025-12-09T09:17:52.053792", "MEAN_MOTION": 14.43210329, "ECCENTRICITY": 0.0032526, "INCLINATION": 86.3437, "RA_OF_ASC_NODE": 13.8206, "ARG_OF_PERICENTER": 138.9133, "MEAN_ANOMALY": 283.1865, "EPHEMERIS_TYPE": 0, "CLASSIFICATION_TYPE": "U", "NORAD_CAT_ID": 34487, "ELEMENT_SET_NO": 999, "REV_AT_EPOCH": 88200, "BSTAR": 0.00033383, "MEAN_MOTION_DOT": 1.149e-05, "MEAN_MOTION_DDOT": 0}, "tle": {"line1": "1 34487U 97051GC  25343.38740803  .00001149  00000+0  33383-3 0  9995", "line2": "2 34487  86.3437  13.8206 0032526 138.9133 283.1865 14.43210329882005"}}, "geometry": {"type": "Point", "coordinates": [-15.743355663227105, -82.5848006880914]}}, {"type": "Feature", "properties": {"norad_id": 34488, "name": "IRIDIUM 33 DEB", "group": "iridium-33-debris", "lat": 30.22105739857867, "lon": -50.53990351604648, "alt_km": 470.7321108488759, "timestamp": "2025-12-09T16:56:36.959273+00:00", "meta": {"OBJECT_NAME": "IRIDIUM 33 DEB", "OBJECT_ID": "1997-051GD", "EPOCH": "2025-12-08T21:57:07.266816", "MEAN_MOTION": 15.27997887, "ECCENTRICITY": 0.0014352, "INCLINATION": 86.3246, "RA_OF_ASC_NODE": 307.7053, "ARG_OF_PERICENTER": 57.4212, "MEAN_ANOMALY": 302.8418, "EPHEMERIS_TYPE": 0, "CLASSIFICATION_TYPE": "U", "NORAD_CAT_ID": 34488, "ELEMENT_SET_NO": 999, "REV_AT_EPOCH": 89181, "BSTAR": 0.0052155, "MEAN_MOTION_DOT": 0.00145336, "MEAN_MOTION_DDOT": 0}, "tle": {"line1": "1 34488U 97051GD  25342.91466744  .00145336  00000+0  52155-2 0  9997", "line2": "2 34488  86.3246 307.7053 0014352  57.4212 302.8418 15.27997887891815"}}, "geometry": {"type": "Point", "coordinates": [-50.53990351604648, 30.22105739857867]}}, {"type": "Feature", "properties": {"norad_id": 34492, "name": "IRIDIUM 33 DEB", "group": "iridium-33-debris", "lat": -15.746513926453357, "lon": 156.85139647041154, "alt_km": 726.5417577531925, "timestamp": "2025-12-09T16:56:36.959283+00:00", "meta": {"OBJECT_NAME": "IRIDIUM 33 DEB", "OBJECT_ID": "1997-051GH", "EPOCH": "2025-12-09T11:35:07.822752", "MEAN_MOTION": 14.25591238, "ECCENTRICITY": 0.0189465, "INCLINATION": 86.4738, "RA_OF_ASC_NODE": 335.9453, "ARG_OF_PERICENTER": 248.7156, "MEAN_ANOMALY": 243.5947, "EPHEMERIS_TYPE": 0, "CLASSIFICATION_TYPE": "U", "NORAD_CAT_ID": 34492, "ELEMENT_SET_NO": 999, "REV_AT_EPOCH": 85012, "BSTAR": 0.007539, "MEAN_MOTION_DOT": 0.00021601, "MEAN_MOTION_DDOT": 0}, "tle": {"line1": "1 34492U 97051GH  25343.48272943  .00021601  00000+0  75390-2 0  9995", "line2": "2 34492  86.4738 335.9453 0189465 248.7156 243.5947 14.25591238850128"}}, "geometry": {"type": "Point", "coordinates": [156.85139647041154, -15.746513926453357]}}, {"type": "Feature", "properties": {"norad_id": 34497, "name": "IRIDIUM 33 DEB", "group": "iridium-33-debris", "lat": 56.87220712996751, "lon": 59.422336831978726, "alt_km": 772.9075687867326, "timestamp": "2025-12-09T16:56:36.959293+00:00", "meta": {"OBJECT_NAME": "IRIDIUM 33 DEB", "OBJECT_ID": "1997-051GN", "EPOCH": "2025-12-09T05:09:24.196032", "MEAN_MOTION": 14.27438084, "ECCENTRICITY": 0.0079165, "INCLINATION": 86.2781, "RA_OF_ASC_NODE": 53.9075, "ARG_OF_PERICENTER": 351.0726, "MEAN_ANOMALY": 63.0332, "EPHEMERIS_TYPE": 0, "CLASSIFICATION_TYPE": "U", "NORAD_CAT_ID": 34497, "ELEMENT_SET_NO": 999, "REV_AT_EPOCH": 86833, "BSTAR": 0.0009704, "MEAN_MOTION_DOT": 2.479e-05, "MEAN_MOTION_DDOT": 0}, "tle": {"line1": "1 34497U 97051GN  25343.21486338  .00002479  00000+0  97040-3 0  9995", "line2": "2 34497  86.2781  53.9075 0079165 351.0726  63.0332 14.27438084868338"}}, "geometry": {"type": "Point", "coordinates": [59.422336831978726, 56.87220712996751]}}, {"type": "Feature", "properties": {"norad_id": 34508, "name": "IRIDIUM 33 DEB", "group": "iridium-33-debris", "lat": 84.55305281404401, "lon": -117.80709919435077, "alt_km": 754.9749368321754, "timestamp": "2025-12-09T16:56:36.959303+00:00", "meta": {"OBJECT_NAME": "IRIDIUM 33 DEB", "OBJECT_ID": "1997-051GZ", "EPOCH": "2025-12-09T08:09:22.353120", "MEAN_MOTION": 14.38378471, "ECCENTRICITY": 0.0065912, "INCLINATION": 86.3702, "RA_OF_ASC_NODE": 104.0845, "ARG_OF_PERICENTER": 183.8965, "MEAN_ANOMALY": 176.1729, "EPHEMERIS_TYPE": 0, "CLASSIFICATION_TYPE": "U", "NORAD_CAT_ID": 34508, "ELEMENT_SET_NO": 999, "REV_AT_EPOCH": 87260, "BSTAR": 0.002305, "MEAN_MOTION_DOT": 7.224e-05, "MEAN_MOTION_DDOT": 0}, "tle": {"line1": "1 34508U 97051GZ  25343.33984205  .00007224  00000+0  23050-2 0  9999", "line2": "2 34508  86.3702 104.0845 0065912 183.8965 176.1729 14.38378471872605"}}, "geometry": {"type": "Point", "coordinates": [-117.80709919435077, 84.55305281404401]}}, {"type": "Feature", "properties": {"norad_id": 34521, "name": "IRIDIUM 33 DEB", "group": "iridium-33-debris", "lat": 0.4913552653564957, "lon": 31.91450198701591, "alt_km": 685.9701786913865, "timestamp": "2025-12-09T16:56:36.959314+00:00", "meta": {"OBJECT_NAME": "IRIDIUM 33 DEB", "OBJECT_ID": "1997-051HN", "EPOCH": "2025-12-09T10:22:36.054336", "MEAN_MOTION": 14.63320774, "ECCENTRICITY": 0.0001233, "INCLINATION": 86.3799, "RA_OF_ASC_NODE": 32.0038, "ARG_OF_PERICENTER": 237.8673, "MEAN_ANOMALY": 122.2419, "EPHEMERIS_TYPE": 0, "CLASSIFICATION_TYPE": "U", "NORAD_CAT_ID": 34521, "ELEMENT_SET_NO": 999, "REV_AT_EPOCH": 88424, "BSTAR": 0.0013249, "MEAN_MOTION_DOT": 6.86e-05, "MEAN_MOTION_DDOT": 0}, "tle": {"line1": "1 34521U 97051HN  25343.43236174  .00006860  00000+0  13249-2 0  9994", "line2": "2 34521  86.3799  32.0038 0001233 237.8673 122.2419 14.63320774884244"}}, "geometry": {"type": "Point", "coordinates": [31.91450198701591, 0.4913552653564957]}}, {"type": "Feature", "properties": {"norad_id": 34525, "name": "IRIDIUM 33 DEB", "group": "iridium-33-debris", "lat": 42.34687151156798, "lon": 51.45280478073696, "alt_km": 743.1551428072908, "timestamp": "2025-12-09T16:56:36.959324+00:00", "meta": {"OBJECT_NAME": "IRIDIUM 33 DEB", "OBJECT_ID": "1997-051HS", "EPOCH": "2025-12-09T10:09:25.064064", "MEAN_MOTION": 14.42893989, "ECCENTRICITY": 0.0006655, "INCLINATION": 86.3729, "RA_OF_ASC_NODE": 48.2592, "ARG_OF_PERICENTER": 102.8665, "MEAN_ANOMALY": 271.8086, "EPHEMERIS_TYPE": 0, "CLASSIFICATION_TYPE": "U", "NORAD_CAT_ID": 34525, "ELEMENT_SET_NO": 999, "REV_AT_EPOCH": 88040, "BSTAR": 0.00064314, "MEAN_MOTION_DOT": 2.167e-05, "MEAN_MOTION_DDOT": 0}, "tle": {"line1": "1 34525U 97051HS  25343.42320676  .00002167  00000+0  64314-3 0  9994", "line2": "2 34525  86.3729  48.2592 0006655 102.8665 271.8086 14.42893989880405"}}, "geometry": {"type": "Point", "coordinates": [51.45280478073696, 42.34687151156798]}}]}